      2.10          N: GNSS NAV DATA                        RINEX VERSION / TYPE
fic2rin                                 07/21/2022 00:17:36 PGM / RUN BY / DATE
                                                            END OF HEADER
28 22  7 20 11 59 44.0  .335930380970D-03  .306954461848D-11  .000000000000D+00
     .350000000000D+02  .602500000000D+02  .455947563475D-08  .290449509935D+01
     .293366611004D-05  .164968087338D-01  .555813312531D-05  .515367099953D+04
     .302384000000D+06  .296160578728D-06 -.397460098848D+00  .689178705215D-07
     .967769697550D+00  .272125000000D+03 -.127412232031D+01 -.796890336538D-08
     .118933525487D-09  .100000000000D+01  .221900000000D+04  .000000000000D+00
     .240000000000D+01  .630000000000D+02 -.111758708954D-07  .350000000000D+02
     .295200000000D+06  .400000000000D+01
1  22  7 20 12  0  0.0  .317808240652D-03 -.738964445191D-11  .000000000000D+00
     .300000000000D+02 -.101250000000D+02  .395016454021D-08  .216476274157D+00
    -.389292836189D-06  .120380889857D-01  .925548374653D-05  .515366504860D+04
     .302400000000D+06 -.596046447754D-07  .161775528031D+01  .150874257088D-06
     .987962249005D+00  .213531250000D+03  .934820790101D+00 -.798783272530D-08
    -.539308178636D-10  .100000000000D+01  .221900000000D+04  .000000000000D+00
     .240000000000D+01  .000000000000D+00  .512227416039D-08  .300000000000D+02
     .295200000000D+06  .400000000000D+01
3  22  7 20 12  0  0.0 -.312007032335D-03 -.100044417195D-10  .000000000000D+00
     .800000000000D+02 -.603125000000D+01  .441339812146D-08 -.887661587971D+00
    -.404193997383D-06  .440421618987D-02  .626966357231D-05  .515358378220D+04
     .302400000000D+06  .353902578354D-07  .265145604196D+01  .894069671631D-07
     .974803631501D+00  .265312500000D+03  .100631553646D+01 -.811676666734D-08
     .100718481043D-09  .100000000000D+01  .221900000000D+04  .000000000000D+00
     .240000000000D+01  .000000000000D+00  .186264514923D-08  .800000000000D+02
     .295200000000D+06  .400000000000D+01
2  22  7 20 12  0  0.0 -.651054549962D-03  .795807864051D-12  .000000000000D+00
     .810000000000D+02 -.285312500000D+02  .447197198987D-08  .329875839304D+00
    -.147707760334D-05  .199445870239D-01  .912137329578D-05  .515487195778D+04
     .302400000000D+06 -.214204192162D-06  .152521643397D+01 -.128522515297D-06
     .966012399391D+00  .213531250000D+03 -.140346659241D+01 -.841785063727D-08
    -.867893294096D-10  .100000000000D+01  .221900000000D+04  .000000000000D+00
     .240000000000D+01  .000000000000D+00 -.172294676304D-07  .810000000000D+02
     .295200000000D+06  .400000000000D+01
5  22  7 20 12  0  0.0 -.898218713701D-04 -.136424205266D-11  .000000000000D+00
     .900000000000D+02 -.103437500000D+02  .459054835762D-08  .282473965544D+01
    -.571832060814D-06  .611358601600D-02  .659562647343D-05  .515375584030D+04
     .302400000000D+06  .409781932831D-07  .260900772424D+01 -.800937414169D-07
     .961800172552D+00  .251250000000D+03  .106591960276D+01 -.805640701026D-08
     .143220251413D-09  .100000000000D+01  .221900000000D+04  .000000000000D+00
     .240000000000D+01  .000000000000D+00 -.111758708954D-07  .900000000000D+02
     .295200000000D+06  .400000000000D+01
6  22  7 20 12  0  0.0  .392586924136D-03  .154614099301D-10  .000000000000D+00
     .460000000000D+02 -.246250000000D+02  .382337354457D-08  .450162639904D+00
    -.132247805595D-05  .243914918974D-02  .935606658459D-05  .515376813889D+04
     .302400000000D+06 -.204890966415D-07  .160947440765D+01 -.223517417908D-07
     .987286099972D+00  .214750000000D+03 -.868277079317D+00 -.777496671571D-08
    -.100004165575D-10  .100000000000D+01  .221900000000D+04  .000000000000D+00
     .240000000000D+01  .000000000000D+00  .372529029846D-08  .460000000000D+02
     .295200000000D+06  .400000000000D+01
4  22  7 20 12  0  0.0 -.143654178828D-03  .466116034659D-11  .000000000000D+00
     .188000000000D+03 -.400000000000D+02  .450161608181D-08  .204950209008D+01
    -.205263495445D-05  .190380413551D-02  .798143446445D-05  .515358856201D+04
     .302400000000D+06 -.242143869400D-07 -.255066424714D+01  .111758708954D-07
     .961705173578D+00  .227062500000D+03 -.299606195805D+01 -.800854787388D-08
    -.221437795202D-09  .100000000000D+01  .221900000000D+04  .000000000000D+00
     .240000000000D+01  .000000000000D+00 -.465661287308D-08  .700000000000D+03
     .295200000000D+06  .400000000000D+01
16 22  7 20 12  0  0.0 -.516374595463D-03 -.204636307899D-11  .000000000000D+00
     .120000000000D+02  .535937500000D+02  .455197532233D-08 -.289456178027D+01
     .254623591900D-05  .126926754601D-01  .549480319023D-05  .515368173027D+04
     .302400000000D+06  .298023223877D-07 -.400882341147D+00 -.214204192162D-06
     .968587002085D+00  .280437500000D+03  .731344142048D+00 -.796640326124D-08
     .152506352502D-09  .100000000000D+01  .221900000000D+04  .000000000000D+00
     .240000000000D+01  .000000000000D+00 -.102445483208D-07  .120000000000D+02
     .295200000000D+06  .400000000000D+01
22 22  7 20 12  0  0.0  .295526813716D-03  .648014975013D-11  .000000000000D+00
     .170000000000D+02 -.422812500000D+02  .432910889619D-08  .228237746671D+01
    -.225752592087D-05  .134359068470D-01  .782310962677D-05  .515371737671D+04
     .302400000000D+06  .128522515297D-06 -.250228342210D+01 -.176951289177D-06
     .961737701561D+00  .225343750000D+03 -.184559633451D+01 -.779461039110D-08
    -.131076888450D-09  .100000000000D+01  .221900000000D+04  .000000000000D+00
     .240000000000D+01  .000000000000D+00 -.791624188423D-08  .170000000000D+02
     .295200000000D+06  .400000000000D+01
12 22  7 20 12  0  0.0 -.249314121902D-03 -.591171556152D-11  .000000000000D+00
     .520000000000D+02  .582812500000D+02  .464769359509D-08 -.108554597566D+01
     .333040952682D-05  .852493813727D-02  .626593828201D-05  .515376542091D+04
     .302400000000D+06 -.577419996262D-07 -.419387416598D+00  .191852450371D-06
     .968712387331D+00  .268125000000D+03  .131320237302D+01 -.822712840721D-08
     .167506977338D-09  .100000000000D+01  .221900000000D+04  .000000000000D+00
     .240000000000D+01  .000000000000D+00 -.125728547573D-07  .520000000000D+02
     .295200000000D+06  .400000000000D+01
10 22  7 20 12  0  0.0 -.498534645885D-03 -.136424205266D-10  .000000000000D+00
     .400000000000D+02 -.537500000000D+01  .421553273672D-08 -.178112926373D+01
    -.260770320892D-06  .771267816890D-02  .674836337566D-05  .515368083954D+04
     .302400000000D+06  .372529029846D-07  .264872364746D+01 -.124797224998D-06
     .974598032994D+00  .259156250000D+03 -.250510858609D+01 -.786782772661D-08
     .162506769059D-09  .100000000000D+01  .221900000000D+04  .000000000000D+00
     .240000000000D+01  .000000000000D+00  .232830643654D-08  .400000000000D+02
     .295200000000D+06  .400000000000D+01
15 22  7 20 12  0  0.0 -.439453870058D-04  .306954461848D-11  .000000000000D+00
     .290000000000D+02 -.430937500000D+02  .535129433146D-08  .147338614026D+01
    -.241585075855D-05  .142669049092D-01  .701285898685D-05  .515358783913D+04
     .302400000000D+06 -.236555933952D-06 -.271497573430D+01 -.143423676491D-06
     .930859130408D+00  .234718750000D+03  .110697328410D+01 -.863000233138D-08
    -.183221917643D-09  .100000000000D+01  .221900000000D+04  .000000000000D+00
     .240000000000D+01  .000000000000D+00 -.107102096081D-07  .290000000000D+02
     .295200000000D+06  .400000000000D+01
8  22  7 20 12  0  0.0 -.769789330661D-04 -.159161572810D-11  .000000000000D+00
     .870000000000D+02 -.200312500000D+02  .474591197200D-08  .240997165868D+01
    -.983476638794D-06  .738544273190D-02  .605545938015D-05  .515356175232D+04
     .302400000000D+06 -.270083546638D-06  .534223754552D+00  .949949026108D-07
     .963080035692D+00  .264375000000D+03  .167361838127D+00 -.819391273793D-08
    -.161078138122D-09  .100000000000D+01  .221900000000D+04  .000000000000D+00
     .240000000000D+01  .000000000000D+00  .512227416039D-08  .870000000000D+02
     .295200000000D+06  .400000000000D+01
11 22  7 20 12  0  0.0 -.104745849967D-04  .341060513165D-12  .000000000000D+00
     .770000000000D+02 -.248125000000D+02  .437589655937D-08  .238591376899D+01
    -.119209289551D-05  .572354416363D-03  .904873013496D-05  .515361235046D+04
     .302400000000D+06  .000000000000D+00  .165793090944D+01  .726431608200D-07
     .963190158313D+00  .207500000000D+03  .288746153663D+01 -.804676375144D-08
     .314298806093D-10  .100000000000D+01  .221900000000D+04  .000000000000D+00
     .340000000000D+01  .000000000000D+00 -.838190317154D-08  .770000000000D+02
     .295200000000D+06  .400000000000D+01
9  22  7 20 12  0  0.0 -.317142345011D-03  .386535248253D-11  .000000000000D+00
     .680000000000D+02 -.437187500000D+02  .461662087222D-08  .292920337756D+01
    -.216253101826D-05  .225689949002D-02  .773556530476D-05  .515379041290D+04
     .302400000000D+06 -.409781932831D-07 -.260485728228D+01  .167638063431D-07
     .954820248073D+00  .227437500000D+03  .190831659625D+01 -.803462038848D-08
    -.204651381694D-09  .100000000000D+01  .221900000000D+04  .000000000000D+00
     .240000000000D+01  .000000000000D+00  .139698386192D-08  .680000000000D+02
     .295200000000D+06  .400000000000D+01
7  22  7 20 12  0  0.0  .318574719131D-03 -.147792889038D-11  .000000000000D+00
     .820000000000D+02  .394687500000D+02  .467912347570D-08 -.427669095323D+00
     .224635004997D-05  .163374890108D-01  .102613121271D-04  .515365325356D+04
     .302400000000D+06  .391155481339D-07 -.153302778892D+01  .245869159698D-06
     .950333089188D+00  .179687500000D+03 -.225194900619D+01 -.833820446254D-08
     .115719105880D-09  .100000000000D+01  .221900000000D+04  .000000000000D+00
     .240000000000D+01  .000000000000D+00 -.111758708954D-07  .820000000000D+02
     .295200000000D+06  .400000000000D+01
